[{"OBJECT_NAME":"YAOGAN-31 04C","OBJECT_ID":"2021-020D","EPOCH":"2026-03-09T22:27:49.782240","MEAN_MOTION":13.45440258,"ECCENTRICITY":0.01660597,"INCLINATION":63.4065,"RA_OF_ASC_NODE":153.1123,"ARG_OF_PERICENTER":0.0567,"MEAN_ANOMALY":0.045,"EPHEMERIS_TYPE":0,"CLASSIFICATION_TYPE":"U","NORAD_CAT_ID":47857,"ELEMENT_SET_NO":999,"REV_AT_EPOCH":24510,"BSTAR":3.7998347e-5,"MEAN_MOTION_DOT":-6.6e-7,"MEAN_MOTION_DDOT":0},{"OBJECT_NAME":"FENGYUN 1C DEB","OBJECT_ID":"1999-025ADM","EPOCH":"2026-03-09T16:29:51.963936","MEAN_MOTION":13.78790616,"ECCENTRICITY":0.01739027,"INCLINATION":99.7101,"RA_OF_ASC_NODE":332.3365,"ARG_OF_PERICENTER":69.0959,"MEAN_ANOMALY":347.6142,"EPHEMERIS_TYPE":0,"CLASSIFICATION_TYPE":"U","NORAD_CAT_ID":30398,"ELEMENT_SET_NO":999,"REV_AT_EPOCH":95955,"BSTAR":0.00056477345,"MEAN_MOTION_DOT":5.97e-6,"MEAN_MOTION_DDOT":0}]
